COSMOS 2251 DEB         
1 34722U 93036YQ  26063.80315532  .00001403  00000+0  68678-3 0  9998
2 34722  73.8725 189.6955 0161847  99.7820  50.1938 14.12175473874030
COSMOS 2251 DEB         
1 34726U 93036YU  26064.31348793  .00002637  00000+0  54931-3 0  9991
2 34726  74.0290 188.7520 0044502 316.3130  43.4515 14.59906195897071
COSMOS 2251 DEB         
1 34728U 93036YW  26062.19299797  .00003954  00000+0  63049-3 0  9999
2 34728  74.0148  95.2911 0043929 235.9795 123.7202 14.71646070899834
COSMOS 2251 DEB         
1 34729U 93036YX  26063.80829329  .00023914  00000+0  27544-2 0  9996
2 34729  74.0159 195.5044 0016735 297.8827 214.3885 14.85537860896759
COSMOS 2251 DEB         
1 34732U 93036ZA  26063.08888281  .00000559  00000+0  15844-3 0  9993
2 34732  74.0451 301.1625 0038262  70.5536  79.4827 14.47396345893202
COSMOS 2251 DEB         
1 34738U 93036ZG  26064.24359662  .00001401  00000+0  39145-3 0  9991
2 34738  74.0182 349.0346 0045306 116.8338  43.7407 14.46523991890518
COSMOS 2251 DEB         
1 34750U 93036ZU  26064.08658522  .00009076  00000+0  17770-2 0  9999
2 34750  74.1074  44.8303 0038770 328.8489 151.1620 14.62439598894348
COSMOS 2251 DEB         
1 34752U 93036ZW  26063.41246964  .00023866  00000+0  17444-2 0  9991
2 34752  74.0124 194.0399 0049445 301.3490  58.2863 15.02560096910750
COSMOS 2251 DEB         
1 34754U 93036ZY  26064.17185962  .00000670  00000+0  21733-3 0  9992
2 34754  74.0285  75.1042 0029302 176.6457 303.1548 14.40613532893207
COSMOS 2251 DEB         
1 34755U 93036ZZ  26063.24666213  .00001588  00000+0  14941-2 0  9994
2 34755  73.9256 159.0038 0405464 164.1276 233.0051 13.50776084836242
COSMOS 2251 DEB         
1 34756U 93036AAA 26064.16357427  .00000935  00000+0  75143-3 0  9998
2 34756  74.0047 328.7815 0345199 187.5882 171.9936 13.67487969845488
COSMOS 2251 DEB         
1 34758U 93036AAC 26064.25437573  .00002070  00000+0  17686-2 0  9990
2 34758  74.1071 166.6557 0386458 271.5511  84.1376 13.58322439840305
COSMOS 2251 DEB         
1 34760U 93036AAE 26064.23428423  .00001545  00000+0  70702-3 0  9990
2 34760  74.0634 155.1164 0096508 189.4445 201.0035 14.19808685878590
COSMOS 2251 DEB         
1 34761U 93036AAF 26063.73645016  .00003062  00000+0  10037-2 0  9994
2 34761  74.0280 211.6333 0037733 230.1958 129.5873 14.38426808888287
COSMOS 2251 DEB         
1 34784U 93036AAM 26064.26419660  .00003099  00000+0  62282-3 0  9992
2 34784  74.0074 166.3414 0051938 313.2264  46.4570 14.61232452897406
COSMOS 2251 DEB         
1 34790U 93036AAT 26064.17217480  .00001237  00000+0  51330-3 0  9999
2 34790  74.0525  95.2491 0097690 138.7648 289.3751 14.24971976877474
