[{"OBJECT_NAME":"COSMOS 2251 DEB","OBJECT_ID":"1993-036YQ","EPOCH":"2026-03-04T19:16:32.619648","MEAN_MOTION":14.12175473,"ECCENTRICITY":0.01618476,"INCLINATION":73.8725,"RA_OF_ASC_NODE":189.6955,"ARG_OF_PERICENTER":99.782,"MEAN_ANOMALY":50.1938,"EPHEMERIS_TYPE":0,"CLASSIFICATION_TYPE":"U","NORAD_CAT_ID":34722,"ELEMENT_SET_NO":999,"REV_AT_EPOCH":87403,"BSTAR":0.00068677963,"MEAN_MOTION_DOT":1.403e-5,"MEAN_MOTION_DDOT":0},{"OBJECT_NAME":"COSMOS 2251 DEB","OBJECT_ID":"1993-036YU","EPOCH":"2026-03-05T07:31:25.357152","MEAN_MOTION":14.59906195,"ECCENTRICITY":0.00445027,"INCLINATION":74.029,"RA_OF_ASC_NODE":188.752,"ARG_OF_PERICENTER":316.313,"MEAN_ANOMALY":43.4515,"EPHEMERIS_TYPE":0,"CLASSIFICATION_TYPE":"U","NORAD_CAT_ID":34726,"ELEMENT_SET_NO":999,"REV_AT_EPOCH":89707,"BSTAR":0.00054930709,"MEAN_MOTION_DOT":2.637e-5,"MEAN_MOTION_DDOT":0},{"OBJECT_NAME":"COSMOS 2251 DEB","OBJECT_ID":"1993-036YW","EPOCH":"2026-03-03T04:37:55.024608","MEAN_MOTION":14.7164607,"ECCENTRICITY":0.00439294,"INCLINATION":74.0148,"RA_OF_ASC_NODE":95.2911,"ARG_OF_PERICENTER":235.9795,"MEAN_ANOMALY":123.7202,"EPHEMERIS_TYPE":0,"CLASSIFICATION_TYPE":"U","NORAD_CAT_ID":34728,"ELEMENT_SET_NO":999,"REV_AT_EPOCH":89983,"BSTAR":0.00063048653,"MEAN_MOTION_DOT":3.954e-5,"MEAN_MOTION_DDOT":0},{"OBJECT_NAME":"COSMOS 2251 DEB","OBJECT_ID":"1993-036YX","EPOCH":"2026-03-04T19:23:56.540256","MEAN_MOTION":14.8553786,"ECCENTRICITY":0.00167358,"INCLINATION":74.0159,"RA_OF_ASC_NODE":195.5044,"ARG_OF_PERICENTER":297.8827,"MEAN_ANOMALY":214.3885,"EPHEMERIS_TYPE":0,"CLASSIFICATION_TYPE":"U","NORAD_CAT_ID":34729,"ELEMENT_SET_NO":999,"REV_AT_EPOCH":89675,"BSTAR":0.0027543509,"MEAN_MOTION_DOT":0.00023914,"MEAN_MOTION_DDOT":0},{"OBJECT_NAME":"COSMOS 2251 DEB","OBJECT_ID":"1993-036ZA","EPOCH":"2026-03-04T02:07:59.474784","MEAN_MOTION":14.47396345,"ECCENTRICITY":0.00382623,"INCLINATION":74.0451,"RA_OF_ASC_NODE":301.1625,"ARG_OF_PERICENTER":70.5536,"MEAN_ANOMALY":79.4827,"EPHEMERIS_TYPE":0,"CLASSIFICATION_TYPE":"U","NORAD_CAT_ID":34732,"ELEMENT_SET_NO":999,"REV_AT_EPOCH":89320,"BSTAR":0.00015844308,"MEAN_MOTION_DOT":5.59e-6,"MEAN_MOTION_DDOT":0},{"OBJECT_NAME":"COSMOS 2251 DEB","OBJECT_ID":"1993-036ZG","EPOCH":"2026-03-05T05:50:46.747968","MEAN_MOTION":14.46523991,"ECCENTRICITY":0.00453069,"INCLINATION":74.0182,"RA_OF_ASC_NODE":349.0346,"ARG_OF_PERICENTER":116.8338,"MEAN_ANOMALY":43.7407,"EPHEMERIS_TYPE":0,"CLASSIFICATION_TYPE":"U","NORAD_CAT_ID":34738,"ELEMENT_SET_NO":999,"REV_AT_EPOCH":89051,"BSTAR":0.00039145185,"MEAN_MOTION_DOT":1.401e-5,"MEAN_MOTION_DDOT":0},{"OBJECT_NAME":"COSMOS 2251 DEB","OBJECT_ID":"1993-036ZU","EPOCH":"2026-03-05T02:04:40.963008","MEAN_MOTION":14.62439598,"ECCENTRICITY":0.00387709,"INCLINATION":74.1074,"RA_OF_ASC_NODE":44.8303,"ARG_OF_PERICENTER":328.8489,"MEAN_ANOMALY":151.162,"EPHEMERIS_TYPE":0,"CLASSIFICATION_TYPE":"U","NORAD_CAT_ID":34750,"ELEMENT_SET_NO":999,"REV_AT_EPOCH":89434,"BSTAR":0.0017769971,"MEAN_MOTION_DOT":9.076e-5,"MEAN_MOTION_DDOT":0},{"OBJECT_NAME":"COSMOS 2251 DEB","OBJECT_ID":"1993-036ZW","EPOCH":"2026-03-04T09:53:57.376896","MEAN_MOTION":15.02560096,"ECCENTRICITY":0.00494454,"INCLINATION":74.0124,"RA_OF_ASC_NODE":194.0399,"ARG_OF_PERICENTER":301.349,"MEAN_ANOMALY":58.2863,"EPHEMERIS_TYPE":0,"CLASSIFICATION_TYPE":"U","NORAD_CAT_ID":34752,"ELEMENT_SET_NO":999,"REV_AT_EPOCH":91075,"BSTAR":0.0017443843,"MEAN_MOTION_DOT":0.00023866,"MEAN_MOTION_DDOT":0},{"OBJECT_NAME":"COSMOS 2251 DEB","OBJECT_ID":"1993-036ZY","EPOCH":"2026-03-05T04:07:28.671168","MEAN_MOTION":14.40613532,"ECCENTRICITY":0.00293027,"INCLINATION":74.0285,"RA_OF_ASC_NODE":75.1042,"ARG_OF_PERICENTER":176.6457,"MEAN_ANOMALY":303.1548,"EPHEMERIS_TYPE":0,"CLASSIFICATION_TYPE":"U","NORAD_CAT_ID":34754,"ELEMENT_SET_NO":999,"REV_AT_EPOCH":89320,"BSTAR":0.00021732855,"MEAN_MOTION_DOT":6.7e-6,"MEAN_MOTION_DDOT":0},{"OBJECT_NAME":"COSMOS 2251 DEB","OBJECT_ID":"1993-036ZZ","EPOCH":"2026-03-04T05:55:11.608032","MEAN_MOTION":13.50776084,"ECCENTRICITY":0.04054644,"INCLINATION":73.9256,"RA_OF_ASC_NODE":159.0038,"ARG_OF_PERICENTER":164.1276,"MEAN_ANOMALY":233.0051,"EPHEMERIS_TYPE":0,"CLASSIFICATION_TYPE":"U","NORAD_CAT_ID":34755,"ELEMENT_SET_NO":999,"REV_AT_EPOCH":83624,"BSTAR":0.0014940629,"MEAN_MOTION_DOT":1.588e-5,"MEAN_MOTION_DDOT":0},{"OBJECT_NAME":"COSMOS 2251 DEB","OBJECT_ID":"1993-036AAA","EPOCH":"2026-03-05T03:55:32.816928","MEAN_MOTION":13.67487969,"ECCENTRICITY":0.03451994,"INCLINATION":74.0047,"RA_OF_ASC_NODE":328.7815,"ARG_OF_PERICENTER":187.5882,"MEAN_ANOMALY":171.9936,"EPHEMERIS_TYPE":0,"CLASSIFICATION_TYPE":"U","NORAD_CAT_ID":34756,"ELEMENT_SET_NO":999,"REV_AT_EPOCH":84548,"BSTAR":0.00075143306,"MEAN_MOTION_DOT":9.35e-6,"MEAN_MOTION_DDOT":0},{"OBJECT_NAME":"COSMOS 2251 DEB","OBJECT_ID":"1993-036AAC","EPOCH":"2026-03-05T06:06:18.063072","MEAN_MOTION":13.58322439,"ECCENTRICITY":0.03864587,"INCLINATION":74.1071,"RA_OF_ASC_NODE":166.6557,"ARG_OF_PERICENTER":271.5511,"MEAN_ANOMALY":84.1376,"EPHEMERIS_TYPE":0,"CLASSIFICATION_TYPE":"U","NORAD_CAT_ID":34758,"ELEMENT_SET_NO":999,"REV_AT_EPOCH":84030,"BSTAR":0.0017686037,"MEAN_MOTION_DOT":2.07e-5,"MEAN_MOTION_DDOT":0},{"OBJECT_NAME":"COSMOS 2251 DEB","OBJECT_ID":"1993-036AAE","EPOCH":"2026-03-05T05:37:22.157472","MEAN_MOTION":14.19808685,"ECCENTRICITY":0.00965088,"INCLINATION":74.0634,"RA_OF_ASC_NODE":155.1164,"ARG_OF_PERICENTER":189.4445,"MEAN_ANOMALY":201.0035,"EPHEMERIS_TYPE":0,"CLASSIFICATION_TYPE":"U","NORAD_CAT_ID":34760,"ELEMENT_SET_NO":999,"REV_AT_EPOCH":87859,"BSTAR":0.00070701694,"MEAN_MOTION_DOT":1.545e-5,"MEAN_MOTION_DDOT":0},{"OBJECT_NAME":"COSMOS 2251 DEB","OBJECT_ID":"1993-036AAF","EPOCH":"2026-03-04T17:40:29.293824","MEAN_MOTION":14.38426808,"ECCENTRICITY":0.00377337,"INCLINATION":74.028,"RA_OF_ASC_NODE":211.6333,"ARG_OF_PERICENTER":230.1958,"MEAN_ANOMALY":129.5873,"EPHEMERIS_TYPE":0,"CLASSIFICATION_TYPE":"U","NORAD_CAT_ID":34761,"ELEMENT_SET_NO":999,"REV_AT_EPOCH":88828,"BSTAR":0.00100371,"MEAN_MOTION_DOT":3.062e-5,"MEAN_MOTION_DDOT":0},{"OBJECT_NAME":"COSMOS 2251 DEB","OBJECT_ID":"1993-036AAM","EPOCH":"2026-03-05T06:20:26.586240","MEAN_MOTION":14.61232452,"ECCENTRICITY":0.00519382,"INCLINATION":74.0074,"RA_OF_ASC_NODE":166.3414,"ARG_OF_PERICENTER":313.2264,"MEAN_ANOMALY":46.457,"EPHEMERIS_TYPE":0,"CLASSIFICATION_TYPE":"U","NORAD_CAT_ID":34784,"ELEMENT_SET_NO":999,"REV_AT_EPOCH":89740,"BSTAR":0.00062282354,"MEAN_MOTION_DOT":3.099e-5,"MEAN_MOTION_DDOT":0},{"OBJECT_NAME":"COSMOS 2251 DEB","OBJECT_ID":"1993-036AAT","EPOCH":"2026-03-05T04:07:55.902720","MEAN_MOTION":14.24971976,"ECCENTRICITY":0.00976909,"INCLINATION":74.0525,"RA_OF_ASC_NODE":95.2491,"ARG_OF_PERICENTER":138.7648,"MEAN_ANOMALY":289.3751,"EPHEMERIS_TYPE":0,"CLASSIFICATION_TYPE":"U","NORAD_CAT_ID":34790,"ELEMENT_SET_NO":999,"REV_AT_EPOCH":87747,"BSTAR":0.00051329859,"MEAN_MOTION_DOT":1.237e-5,"MEAN_MOTION_DDOT":0}]
